{
    "links": {
        "self": "http://www.neowsapp.com/rest/v1/neo/3694047?api_key=iIulBulltgU6a56xZRHN4H3l9WmuAYTsLGpBGhQ2"
    },
    "id": "3694047",
    "neo_reference_id": "3694047",
    "name": "(2014 UU33)",
    "designation": "2014 UU33",
    "nasa_jpl_url": "http://ssd.jpl.nasa.gov/sbdb.cgi?sstr=3694047",
    "absolute_magnitude_h": 25.1,
    "estimated_diameter": {
        "kilometers": {
            "estimated_diameter_min": 0.0253837029,
            "estimated_diameter_max": 0.0567596853
        },
        "meters": {
            "estimated_diameter_min": 25.3837029364,
            "estimated_diameter_max": 56.7596852866
        },
        "miles": {
            "estimated_diameter_min": 0.0157726969,
            "estimated_diameter_max": 0.0352688224
        },
        "feet": {
            "estimated_diameter_min": 83.279867942,
            "estimated_diameter_max": 186.2194458756
        }
    },
    "is_potentially_hazardous_asteroid": false,
    "close_approach_data": [
        {
            "close_approach_date": "2014-10-25",
            "close_approach_date_full": "2014-Oct-25 11:04",
            "epoch_date_close_approach": 1414235040000,
            "relative_velocity": {
                "kilometers_per_second": "19.7342482841",
                "kilometers_per_hour": "71043.2938227042",
                "miles_per_hour": "44143.5399866686"
            },
            "miss_distance": {
                "astronomical": "0.0176489152",
                "lunar": "6.8654280128",
                "kilometers": "2640240.121730624",
                "miles": "1640569.1374416512"
            },
            "orbiting_body": "Earth"
        },
        {
            "close_approach_date": "2017-05-15",
            "close_approach_date_full": "2017-May-15 04:00",
            "epoch_date_close_approach": 1494820800000,
            "relative_velocity": {
                "kilometers_per_second": "30.9178338504",
                "kilometers_per_hour": "111304.2018615484",
                "miles_per_hour": "69160.1025400271"
            },
            "miss_distance": {
                "astronomical": "0.3937954544",
                "lunar": "153.1864317616",
                "kilometers": "58910961.193922128",
                "miles": "36605573.8628882464"
            },
            "orbiting_body": "Earth"
        }
    ],
    "orbital_data": {
        "orbit_id": "3",
        "orbit_determination_date": "2017-04-06 08:38:02",
        "first_observation_date": "2014-10-22",
        "last_observation_date": "2014-10-24",
        "data_arc_in_days": 2,
        "observations_used": 31,
        "orbit_uncertainty": "8",
        "minimum_orbit_intersection": ".00937663",
        "jupiter_tisserand_invariant": "3.857",
        "epoch_osculation": "2456954.5",
        "eccentricity": ".6571419831336522",
        "semi_major_axis": "1.742393204634998",
        "inclination": "3.529883036224332",
        "ascending_node_longitude": "23.87254657080418",
        "orbital_period": "840.0742634677918",
        "perihelion_distance": ".597393478742556",
        "perihelion_argument": "99.19589348156671",
        "aphelion_distance": "2.887392930527441",
        "perihelion_time": "2457004.324711513845",
        "mean_anomaly": "338.6484398760874",
        "mean_motion": ".4285335423965197",
        "equinox": "J2000",
        "orbit_class": {
            "orbit_class_type": "APO",
            "orbit_class_description": "Near-Earth asteroid orbits which cross the Earth’s orbit similar to that of 1862 Apollo",
            "orbit_class_range": "a (semi-major axis) > 1.0 AU; q (perihelion) < 1.017 AU"
        }
    },
    "is_sentry_object": false
}